BLUEWALKER-3            
1 53807U 22111AL  26199.29726005  .00002622  00000+0  77919-4 0  9996
2 53807  53.2279 247.8770 0004598 280.0203  80.0283 15.38628548214995
SPACEMOBILE-003         
1 61045U 24163A   26199.89375672  .00001377  00000+0  76472-4 0  9993
2 61045  52.9671 163.6352 0004384 205.8677 154.2099 15.20716481102590
SPACEMOBILE-005         
1 61046U 24163B   26199.28569049  .00002152  00000+0  11126-3 0  9996
2 61046  52.9757 166.3840 0008560 205.2960 154.7616 15.20722937102499
SPACEMOBILE-001         
1 61047U 24163C   26199.28402452 -.00000022  00000+0  13735-4 0  9995
2 61047  52.9715 166.1008 0007094 203.8926 156.1740 15.20703424102499
SPACEMOBILE-002         
1 61048U 24163D   26199.92515039 -.00003161  00000+0 -12766-3 0  9993
2 61048  52.9788 163.1952 0005142 205.6503 154.4236 15.20616813102595
SPACEMOBILE-004         
1 61049U 24163E   26199.31610674  .00010492  00000+0  48447-3 0  9996
2 61049  52.9719 165.7693 0005789 237.6341 122.4093 15.20746753102506
SPACEMOBILE-006         
1 67232U 25309A   26199.36977421  .00001388  00000+0  81418-4 0  9990
2 67232  52.9937 188.7910 0009785 226.0321 133.9866 15.18663329 31336
SPACEMOBILE-008         
1 69589U 26139A   26199.91856603  .00000372  00000+0  37934-4 0  9994
2 69589  52.9950 118.5029 0005195  65.3049 294.8482 15.12805365  4784
SPACEMOBILE-009         
1 69590U 26139B   26199.92079068  .00000347  00000+0  36602-4 0  9992
2 69590  52.9941 118.5109 0005448  61.6062 298.5477 15.12698741  4783
SPACEMOBILE-010         
1 69591U 26139C   26199.79215350  .00001057  00000+0  76987-4 0  9993
2 69591  52.9947 119.1356 0005439  53.7113 306.4380 15.12537049  4774
