OBJECT_NAME,OBJECT_ID,EPOCH,MEAN_MOTION,ECCENTRICITY,INCLINATION,RA_OF_ASC_NODE,ARG_OF_PERICENTER,MEAN_ANOMALY,EPHEMERIS_TYPE,CLASSIFICATION_TYPE,NORAD_CAT_ID,ELEMENT_SET_NO,REV_AT_EPOCH,BSTAR,MEAN_MOTION_DOT,MEAN_MOTION_DDOT
SPACEMOBILE-003,2024-163A,2026-07-18T21:27:00.580608,15.20716481,.00043841,52.9671,163.6352,205.8677,154.2099,0,U,61045,999,10259,.76472118E-4,.1377E-4,0
SPACEMOBILE-005,2024-163B,2026-07-18T06:51:23.658336,15.20722937,.00085608,52.9757,166.3840,205.2960,154.7616,0,U,61046,999,10249,.11125988E-3,.2152E-4,0
SPACEMOBILE-001,2024-163C,2026-07-18T06:48:59.718528,15.20703424,.00070948,52.9715,166.1008,203.8926,156.1740,0,U,61047,999,10249,.13734528E-4,-.22E-6,0
SPACEMOBILE-002,2024-163D,2026-07-18T22:12:12.993696,15.20616813,.00051426,52.9788,163.1952,205.6503,154.4236,0,U,61048,999,10259,-.12766347E-3,-.3161E-4,0
SPACEMOBILE-004,2024-163E,2026-07-18T07:35:11.622336,15.20746753,.00057895,52.9719,165.7693,237.6341,122.4093,0,U,61049,999,10250,.48446837E-3,.10492E-3,0
SPACEMOBILE-006,2025-309A,2026-07-18T08:52:28.491744,15.18663329,.00097856,52.9937,188.7910,226.0321,133.9866,0,U,67232,999,3133,.81418095E-4,.1388E-4,0
SPACEMOBILE-008,2026-139A,2026-07-18T22:02:44.104992,15.12805365,.00051959,52.9950,118.5029,65.3049,294.8482,0,U,69589,999,478,.37934499E-4,.372E-5,0
SPACEMOBILE-009,2026-139B,2026-07-18T22:05:56.314752,15.12698741,.00054486,52.9941,118.5109,61.6062,298.5477,0,U,69590,999,478,.36602007E-4,.347E-5,0
SPACEMOBILE-010,2026-139C,2026-07-18T19:00:42.062400,15.12537049,.00054392,52.9947,119.1356,53.7113,306.4380,0,U,69591,999,477,.76987258E-4,.1057E-4,0
BLUEWALKER-3,2022-111AL,2026-07-18T07:08:03.268320,15.38628548,.00045985,53.2279,247.8770,280.0203,80.0283,0,U,53807,999,21499,.77918739E-4,.2622E-4,0
